#cP2005  4 21 00 00 00.00000000    8638 U+u   IGS00 FIT DEOS
## 1319 345600.00000000    10.00000000 53481 0.0000000000000
+    1   L06  0  0  0  0  0  0  0  0  0  0  0  0  0  0  0  0
+          0  0  0  0  0  0  0  0  0  0  0  0  0  0  0  0  0
+          0  0  0  0  0  0  0  0  0  0  0  0  0  0  0  0  0
+          0  0  0  0  0  0  0  0  0  0  0  0  0  0  0  0  0
+          0  0  0  0  0  0  0  0  0  0  0  0  0  0  0  0  0
++         0  0  0  0  0  0  0  0  0  0  0  0  0  0  0  0  0
++         0  0  0  0  0  0  0  0  0  0  0  0  0  0  0  0  0
++         0  0  0  0  0  0  0  0  0  0  0  0  0  0  0  0  0
++         0  0  0  0  0  0  0  0  0  0  0  0  0  0  0  0  0
++         0  0  0  0  0  0  0  0  0  0  0  0  0  0  0  0  0
%c cc cc ccc ccc cccc cccc cccc cccc ccccc ccccc ccccc ccccc
%c cc cc ccc ccc cccc cccc cccc cccc ccccc ccccc ccccc ccccc
%f   .0000000   .000000000   .00000000000   .000000000000000
%f   .0000000   .000000000   .00000000000   .000000000000000
%i    0    0    0    0      0      0      0      0         0
%i    0    0    0    0      0      0      0      0         0
/* NOTE: CCCCCCCCCCCCCCCCCCCCCCCCCCCCCCCCCCCCCCCCCCCCCCCCCCC
/* CCCCCCCCCCCCCCCCCCCCCCCCCCCCCCCCCCCCCCCCCCCCCCCCCCCCCCCCC
/* CCCCCCCCCCCCCCCCCCCCCCCCCCCCCCCCCCCCCCCCCCCCCCCCCCCCCCCCC
/* CCCCCCCCCCCCCCCCCCCCCCCCCCCCCCCCCCCCCCCCCCCCCCCCCCCCCCCCC
*  2005 04 21 02 19 30.00000000
PL06   3975.713147  -3403.111985   4236.083809 999999.999999
*  2005 04 21 02 19 40.00000000
PL06   3939.307753  -3370.675544   4295.440127 999999.999999
*  2005 04 21 02 19 50.00000000
PL06   3902.438417  -3337.747882   4354.234664 999999.999999
*  2005 04 21 02 20 00.00000000
PL06   3865.110659  -3304.332617   4412.459748 999999.999999
*  2005 04 21 02 20 10.00000000
PL06   3827.330051  -3270.433441   4470.107785 999999.999999
*  2005 04 21 02 20 20.00000000
PL06   3789.102220  -3236.054112   4527.171254 999999.999999
*  2005 04 21 02 20 30.00000000
PL06   3750.432844  -3201.198462   4583.642715 999999.999999
*  2005 04 21 02 20 40.00000000
PL06   3711.327653  -3165.870393   4639.514802 999999.999999
*  2005 04 21 02 20 50.00000000
PL06   3671.792430  -3130.073876   4694.780231 999999.999999
*  2005 04 21 02 21 00.00000000
PL06   3631.833004  -3093.812951   4749.431797 999999.999999
*  2005 04 21 02 21 10.00000000
PL06   3591.455256  -3057.091727   4803.462377 999999.999999
*  2005 04 21 02 21 20.00000000
PL06   3550.665113  -3019.914381   4856.864929 999999.999999
*  2005 04 21 02 21 30.00000000
PL06   3509.468552  -2982.285157   4909.632494 999999.999999
*  2005 04 21 02 21 40.00000000
PL06   3467.871594  -2944.208369   4961.758197 999999.999999
*  2005 04 21 02 21 50.00000000
PL06   3425.880306  -2905.688394   5013.235248 999999.999999
*  2005 04 21 02 22 00.00000000
PL06   3383.500799  -2866.729677   5064.056941 999999.999999
*  2005 04 21 02 22 10.00000000
PL06   3340.739228  -2827.336727   5114.216659 999999.999999
*  2005 04 21 02 22 20.00000000
PL06   3297.601791  -2787.514120   5163.707869 999999.999999
*  2005 04 21 02 22 30.00000000
PL06   3254.094728  -2747.266496   5212.524129 999999.999999
*  2005 04 21 02 22 40.00000000
PL06   3210.224318  -2706.598557   5260.659083 999999.999999
*  2005 04 21 02 22 50.00000000
PL06   3165.996882  -2665.515071   5308.106466 999999.999999
*  2005 04 21 02 23 00.00000000
PL06   3121.418778  -2624.020867   5354.860104 999999.999999
*  2005 04 21 02 23 10.00000000
PL06   3076.496403  -2582.120838   5400.913913 999999.999999
*  2005 04 21 02 23 20.00000000
PL06   3031.236192  -2539.819936   5446.261902 999999.999999
*  2005 04 21 02 23 30.00000000
PL06   2985.644614  -2497.123176   5490.898170 999999.999999
*  2005 04 21 02 23 40.00000000
PL06   2939.728174  -2454.035634   5534.816913 999999.999999
*  2005 04 21 02 23 50.00000000
PL06   2893.493413  -2410.562444   5578.012419 999999.999999
*  2005 04 21 02 24 00.00000000
PL06   2846.946903  -2366.708800   5620.479072 999999.999999
*  2005 04 21 02 24 10.00000000
PL06   2800.095250  -2322.479956   5662.211352 999999.999999
*  2005 04 21 02 24 20.00000000
PL06   2752.945090  -2277.881222   5703.203833 999999.999999
*  2005 04 21 02 24 30.00000000
PL06   2705.503089  -2232.917965   5743.451190 999999.999999
*  2005 04 21 02 24 40.00000000
PL06   2657.775944  -2187.595610   5782.948191 999999.999999
*  2005 04 21 02 24 50.00000000
PL06   2609.770379  -2141.919636   5821.689706 999999.999999
*  2005 04 21 02 25 00.00000000
PL06   2561.493147  -2095.895580   5859.670702 999999.999999
*  2005 04 21 02 25 10.00000000
PL06   2512.951026  -2049.529030   5896.886245 999999.999999
*  2005 04 21 02 25 20.00000000
PL06   2464.150819  -2002.825630   5933.331504 999999.999999
*  2005 04 21 02 25 30.00000000
PL06   2415.099357  -1955.791078   5969.001744 999999.999999
*  2005 04 21 02 25 40.00000000
PL06   2365.803491  -1908.431120   6003.892335 999999.999999
*  2005 04 21 02 25 50.00000000
PL06   2316.270097  -1860.751560   6037.998747 999999.999999
*  2005 04 21 02 26 00.00000000
PL06   2266.506071  -1812.758247   6071.316554 999999.999999
*  2005 04 21 02 26 10.00000000
PL06   2216.518333  -1764.457083   6103.841430 999999.999999
*  2005 04 21 02 26 20.00000000
PL06   2166.313819  -1715.854020   6135.569157 999999.999999
*  2005 04 21 02 26 30.00000000
PL06   2115.899485  -1666.955057   6166.495616 999999.999999
*  2005 04 21 02 26 40.00000000
PL06   2065.282308  -1617.766242   6196.616794 999999.999999
*  2005 04 21 02 26 50.00000000
PL06   2014.469277  -1568.293670   6225.928786 999999.999999
*  2005 04 21 02 27 00.00000000
PL06   1963.467401  -1518.543482   6254.427788 999999.999999
*  2005 04 21 02 27 10.00000000
PL06   1912.283702  -1468.521867   6282.110105 999999.999999
*  2005 04 21 02 27 20.00000000
PL06   1860.925217  -1418.235056   6308.972147 999999.999999
*  2005 04 21 02 27 30.00000000
PL06   1809.398993  -1367.689326   6335.010432 999999.999999
*  2005 04 21 02 27 40.00000000
PL06   1757.712093  -1316.890998   6360.221586 999999.999999
*  2005 04 21 02 27 50.00000000
PL06   1705.871589  -1265.846433   6384.602340 999999.999999
*  2005 04 21 02 28 00.00000000
PL06   1653.884562  -1214.562037   6408.149535 999999.999999
*  2005 04 21 02 28 10.00000000
PL06   1601.758103  -1163.044255   6430.860120 999999.999999
*  2005 04 21 02 28 20.00000000
PL06   1549.499312  -1111.299573   6452.731154 999999.999999
*  2005 04 21 02 28 30.00000000
PL06   1497.115295  -1059.334515   6473.759803 999999.999999
*  2005 04 21 02 28 40.00000000
PL06   1444.613164  -1007.155644   6493.943344 999999.999999
*  2005 04 21 02 28 50.00000000
PL06   1392.000036   -954.769562   6513.279164 999999.999999
*  2005 04 21 02 29 00.00000000
PL06   1339.283033   -902.182907   6531.764758 999999.999999
*  2005 04 21 02 29 10.00000000
PL06   1286.469281   -849.402351   6549.397734 999999.999999
*  2005 04 21 02 29 20.00000000
PL06   1233.565905   -796.434605   6566.175810 999999.999999
*  2005 04 21 02 29 30.00000000
PL06   1180.580035   -743.286411   6582.096813 999999.999999
*  2005 04 21 02 29 40.00000000
PL06   1127.518799   -689.964546   6597.158684 999999.999999
*  2005 04 21 02 29 50.00000000
PL06   1074.389326   -636.475819   6611.359475 999999.999999
*  2005 04 21 02 30 00.00000000
PL06   1021.198741   -582.827069   6624.697347 999999.999999
*  2005 04 21 02 30 10.00000000
PL06    967.954171   -529.025169   6637.170577 999999.999999
*  2005 04 21 02 30 20.00000000
PL06    914.662734   -475.077017   6648.777550 999999.999999
*  2005 04 21 02 30 30.00000000
PL06    861.331549   -420.989545   6659.516766 999999.999999
*  2005 04 21 02 30 40.00000000
PL06    807.967727   -366.769711   6669.386835 999999.999999
*  2005 04 21 02 30 50.00000000
PL06    754.578374   -312.424498   6678.386483 999999.999999
*  2005 04 21 02 31 00.00000000
PL06    701.170588   -257.960921   6686.514546 999999.999999
*  2005 04 21 02 31 10.00000000
PL06    647.751458   -203.386015   6693.769973 999999.999999
*  2005 04 21 02 31 20.00000000
PL06    594.328066   -148.706842   6700.151828 999999.999999
*  2005 04 21 02 31 30.00000000
PL06    540.907482    -93.930488   6705.659287 999999.999999
*  2005 04 21 02 31 40.00000000
PL06    487.496767    -39.064062   6710.291639 999999.999999
*  2005 04 21 02 31 50.00000000
PL06    434.102969     15.885306   6714.048287 999999.999999
*  2005 04 21 02 32 00.00000000
PL06    380.733122     70.910466   6716.928746 999999.999999
*  2005 04 21 02 32 10.00000000
PL06    327.394248    126.004245   6718.932647 999999.999999
*  2005 04 21 02 32 20.00000000
PL06    274.093354    181.159454   6720.059733 999999.999999
*  2005 04 21 02 32 30.00000000
PL06    220.837431    236.368885   6720.309860 999999.999999
*  2005 04 21 02 32 40.00000000
PL06    167.633455    291.625312   6719.682998 999999.999999
*  2005 04 21 02 32 50.00000000
PL06    114.488382    346.921494   6718.179232 999999.999999
*  2005 04 21 02 33 00.00000000
PL06     61.409152    402.250173   6715.798758 999999.999999
*  2005 04 21 02 33 10.00000000
PL06      8.402685    457.604078   6712.541888 999999.999999
*  2005 04 21 02 33 20.00000000
PL06    -44.524119    512.975925   6708.409046 999999.999999
*  2005 04 21 02 33 30.00000000
PL06    -97.364382    568.358417   6703.400770 999999.999999
*  2005 04 21 02 33 40.00000000
PL06   -150.111245    623.744245   6697.517711 999999.999999
*  2005 04 21 02 33 50.00000000
PL06   -202.757875    679.126090   6690.760634 999999.999999
*  2005 04 21 02 34 00.00000000
PL06   -255.297461    734.496624   6683.130416 999999.999999
*  2005 04 21 02 34 10.00000000
PL06   -307.723217    789.848509   6674.628048 999999.999999
*  2005 04 21 02 34 20.00000000
PL06   -360.028380    845.174401   6665.254634 999999.999999
*  2005 04 21 02 34 30.00000000
PL06   -412.206218    900.466949   6655.011389 999999.999999
*  2005 04 21 02 34 40.00000000
PL06   -464.250021    955.718795   6643.899644 999999.999999
*  2005 04 21 02 34 50.00000000
PL06   -516.153111   1010.922578   6631.920839 999999.999999
EOF
